[
  {
    "name": "KUIPER-00230",
    "noradId": "68579",
    "line1": "1 68579U 26072G   26150.70693234  .00036175  00000+0  97507-3 0  9992",
    "line2": "2 68579  51.8780 261.2808 0002601 318.5761  41.5028 15.37468703  8690"
  },
  {
    "name": "KUIPER-00231",
    "noradId": "68580",
    "line1": "1 68580U 26072H   26150.70234251  .00039630  00000+0  10670-2 0  9998",
    "line2": "2 68580  51.8763 261.2511 0002789 329.2624  30.8199 15.37458545  8691"
  },
  {
    "name": "KUIPER-00234",
    "noradId": "68581",
    "line1": "1 68581U 26072J   26151.16668980  .00022947  00000+0  30332-2 0  9990",
    "line2": "2 68581  51.8994 264.8560 0000786 223.2609  75.1352 14.79871069  5440"
  },
  {
    "name": "KUIPER-00236",
    "noradId": "68582",
    "line1": "1 68582U 26072K   26150.71602903  .00033718  00000+0  92122-3 0  9998",
    "line2": "2 68582  51.8774 261.3446 0002705 307.9274  52.1468 15.37082901  8690"
  },
  {
    "name": "KUIPER-00244",
    "noradId": "68583",
    "line1": "1 68583U 26072L   26151.16668980  .00037980  00000+0  13350-2 0  9996",
    "line2": "2 68583  51.8798 259.2940 0003048 334.7539 306.4407 15.29001187  4327"
  },
  {
    "name": "KUIPER-00253",
    "noradId": "68584",
    "line1": "1 68584U 26072M   26151.16668980  .00055969  00000+0  32950-2 0  9991",
    "line2": "2 68584  51.8834 260.4402 0008134 346.6848  16.8599 15.11057866  5299"
  },
  {
    "name": "KUIPER-00254",
    "noradId": "68585",
    "line1": "1 68585U 26072N   26151.16668980  .00042161  00000+0  32808-2 0  9994",
    "line2": "2 68585  51.8897 261.8378 0008459 341.9667  32.1092 15.00820716  5900"
  },
  {
    "name": "KUIPER-00263",
    "noradId": "68586",
    "line1": "1 68586U 26072P   26150.70190003  .00038034  00000+0  10096-2 0  9999",
    "line2": "2 68586  51.8777 261.2492 0001815 301.0814  58.9995 15.37918684  8698"
  },
  {
    "name": "KUIPER-00269",
    "noradId": "68587",
    "line1": "1 68587U 26072Q   26150.70325612  .00038948  00000+0  10073-2 0  9995",
    "line2": "2 68587  51.8754 261.2516 0004715 298.1370  61.9140 15.38700355  8697"
  },
  {
    "name": "KUIPER-00272",
    "noradId": "68588",
    "line1": "1 68588U 26072R   26150.70341273  .00005327  00000+0  72613-3 0  9991",
    "line2": "2 68588  51.8986 270.4570 0000503  83.8784 276.2236 14.79996076  8560"
  },
  {
    "name": "KUIPER-00285",
    "noradId": "68589",
    "line1": "1 68589U 26072S   26150.71217857  .00044600  00000+0  11564-2 0  9997",
    "line2": "2 68589  51.8748 261.3117 0007324 315.3814  44.6583 15.38546684  8696"
  },
  {
    "name": "KUIPER-00286",
    "noradId": "68590",
    "line1": "1 68590U 26072T   26150.69937089  .00035801  00000+0  92266-3 0  9994",
    "line2": "2 68590  51.8751 261.2257 0004973 307.2467  52.8066 15.38847999  8697"
  },
  {
    "name": "KUIPER-00289",
    "noradId": "68591",
    "line1": "1 68591U 26072U   26150.70120334  .00029360  00000+0  83028-3 0  9993",
    "line2": "2 68591  51.8669 261.9318 0011467 327.3609  32.6667 15.36023474  8682"
  },
  {
    "name": "KUIPER-00290",
    "noradId": "68592",
    "line1": "1 68592U 26072V   26150.57259749  .00008712  00000+0  25131-3 0  9991",
    "line2": "2 68592  51.8666 262.5621 0013014 320.1873  39.8157 15.36436859  8664"
  },
  {
    "name": "KUIPER-00293",
    "noradId": "68593",
    "line1": "1 68593U 26072W   26151.16668980  .00020262  00000+0  21847-2 0  9992",
    "line2": "2 68593  51.8964 263.6266 0015142 336.3155 204.6726 14.88298138  1781"
  },
  {
    "name": "KUIPER-00294",
    "noradId": "68594",
    "line1": "1 68594U 26072X   26150.69629827  .00009331  00000+0  26957-3 0  9999",
    "line2": "2 68594  51.8699 261.9139 0011273 322.1886  37.8307 15.36314868  8682"
  },
  {
    "name": "KUIPER-00296",
    "noradId": "68595",
    "line1": "1 68595U 26072Y   26150.73793129  .00019664  00000+0  53045-3 0  9990",
    "line2": "2 68595  51.8709 261.4603 0009197 322.8351  37.1998 15.37756470  8692"
  },
  {
    "name": "KUIPER-00297",
    "noradId": "68596",
    "line1": "1 68596U 26072Z   26151.16668980 -.01670530  00000+0 -15643+0 0  9991",
    "line2": "2 68596  51.8896 262.6381 0008545 340.0904 124.6031 14.97097463  5386"
  },
  {
    "name": "KUIPER-00300",
    "noradId": "68597",
    "line1": "1 68597U 26072AA  26151.16668980  .00037226  00000+0  21814-2 0  9998",
    "line2": "2 68597  51.8909 260.8263 0008373 339.7954 280.2628 15.11415042  4867"
  },
  {
    "name": "KUIPER-00301",
    "noradId": "68598",
    "line1": "1 68598U 26072AB  26150.67497725  .00033613  00000+0  89445-3 0  9992",
    "line2": "2 68598  51.8663 261.7614 0009756 325.3640  34.6711 15.37860740  8689"
  },
  {
    "name": "KUIPER-00304",
    "noradId": "68599",
    "line1": "1 68599U 26072AC  26150.68145617  .00038176  00000+0  10239-2 0  9997",
    "line2": "2 68599  51.8672 261.8112 0010677 324.0313  35.9954 15.37546449  8681"
  },
  {
    "name": "KUIPER-00317",
    "noradId": "68600",
    "line1": "1 68600U 26072AD  26150.73685115  .00018096  00000+0  48816-3 0  9990",
    "line2": "2 68600  51.8696 261.4462 0009562 319.4106  40.6167 15.37812372  8694"
  },
  {
    "name": "KUIPER-00320",
    "noradId": "68601",
    "line1": "1 68601U 26072AE  26151.16668980 -.01103978  00000+0 -47263-1 0  9990",
    "line2": "2 68601  51.8690 259.9485 0011415 326.0643 288.2135 15.25244858  5884"
  },
  {
    "name": "KUIPER-00299",
    "noradId": "68864",
    "line1": "1 68864U 26095A   26151.06387007 -.00101322  00000+0 -46919-2 0  9991",
    "line2": "2 68864  51.8779 326.6658 0011654 241.0223 118.9589 15.19927940  5078"
  },
  {
    "name": "KUIPER-00353",
    "noradId": "68865",
    "line1": "1 68865U 26095B   26151.16668980 -.00000241  00000+0  39974-5 0  9998",
    "line2": "2 68865  51.8843 324.4245 0000863 229.7311 154.4693 15.37135063  5742"
  },
  {
    "name": "KUIPER-00357",
    "noradId": "68866",
    "line1": "1 68866U 26095C   26150.97487977 -.00451899  00000+0 -12560-1 0  9990",
    "line2": "2 68866  51.8832 325.4413 0008252 187.2950 172.7919 15.38067559  5082"
  },
  {
    "name": "KUIPER-00364",
    "noradId": "68867",
    "line1": "1 68867U 26095D   26151.16668980 -.00017175  00000+0 -60114-3 0  9993",
    "line2": "2 68867  51.8850 324.8405 0002239 246.2813 305.8322 15.28398191  5085"
  },
  {
    "name": "KUIPER-00375",
    "noradId": "68868",
    "line1": "1 68868U 26095E   26151.16668980 -.00001906  00000+0 -40905-4 0  9996",
    "line2": "2 68868  51.8832 324.4459 0001678 222.5867 153.0170 15.37259765  5596"
  },
  {
    "name": "KUIPER-00433",
    "noradId": "68869",
    "line1": "1 68869U 26095F   26151.16668980 -.01459402  00000+0 -15390+0 0  9991",
    "line2": "2 68869  51.8944 328.5397 0006569 263.6952 311.0428 14.92037862  5080"
  },
  {
    "name": "KUIPER-00437",
    "noradId": "68870",
    "line1": "1 68870U 26095G   26150.80460754  .00034163  00000+0  92449-3 0  9996",
    "line2": "2 68870  51.8803 326.5350 0006804 231.6363 128.4013 15.37356412  5058"
  },
  {
    "name": "KUIPER-00448",
    "noradId": "68871",
    "line1": "1 68871U 26095H   26151.16668980 -.00007639  00000+0 -21329-3 0  9997",
    "line2": "2 68871  51.8841 324.5714 0003293 224.3295  81.9746 15.34628740  5830"
  },
  {
    "name": "KUIPER-00459",
    "noradId": "68872",
    "line1": "1 68872U 26095J   26150.89378613  .00033971  00000+0  97589-3 0  9995",
    "line2": "2 68872  51.8733 326.3569 0011385 242.7987 117.1839 15.35457421  5069"
  },
  {
    "name": "KUIPER-00468",
    "noradId": "68873",
    "line1": "1 68873U 26095K   26150.92001742  .00047491  00000+0  12553-2 0  9995",
    "line2": "2 68873  51.8825 325.8204 0004830 226.1142 133.9446 15.37940678  5072"
  },
  {
    "name": "KUIPER-00476",
    "noradId": "68874",
    "line1": "1 68874U 26095L   26150.75708809  .00035423  00000+0  10067-2 0  9995",
    "line2": "2 68874  51.8752 326.9470 0008826 230.8469 129.1733 15.35798491  5047"
  },
  {
    "name": "KUIPER-00478",
    "noradId": "68875",
    "line1": "1 68875U 26095M   26150.48601145  .00036305  00000+0  98850-3 0  9998",
    "line2": "2 68875  51.8785 328.1472 0007491 243.7367 116.2850 15.37131987  5003"
  },
  {
    "name": "KUIPER-00480",
    "noradId": "68876",
    "line1": "1 68876U 26095N   26150.86520602  .00040782  00000+0  10934-2 0  9999",
    "line2": "2 68876  51.8774 326.1891 0006025 228.7726 131.2743 15.37562879  5061"
  },
  {
    "name": "KUIPER-00482",
    "noradId": "68877",
    "line1": "1 68877U 26095P   26150.90527206  .00053509  00000+0  13708-2 0  9995",
    "line2": "2 68877  51.8850 325.7251 0002353 241.7456 118.3294 15.38857672  5074"
  },
  {
    "name": "KUIPER-00483",
    "noradId": "68878",
    "line1": "1 68878U 26095Q   26151.16668980 -.01788956  00000+0 -17782+0 0  9997",
    "line2": "2 68878  51.8947 327.7515 0010515 258.6067 208.7522 14.95012661  5173"
  },
  {
    "name": "KUIPER-00488",
    "noradId": "68879",
    "line1": "1 68879U 26095R   26150.89638284  .00030447  00000+0  86792-3 0  9994",
    "line2": "2 68879  51.8670 326.3634 0010318 249.9996 109.9879 15.35766227  5063"
  },
  {
    "name": "KUIPER-00489",
    "noradId": "68880",
    "line1": "1 68880U 26095S   26150.49801479  .00045225  00000+0  12775-2 0  9999",
    "line2": "2 68880  51.8759 328.2109 0010368 238.5039 121.4934 15.35859921  5007"
  },
  {
    "name": "KUIPER-00499",
    "noradId": "68881",
    "line1": "1 68881U 26095T   26150.89732240  .00043132  00000+0  12374-2 0  9993",
    "line2": "2 68881  51.8698 326.3738 0007859 235.5448 124.4796 15.35419352  5064"
  },
  {
    "name": "KUIPER-00500",
    "noradId": "68882",
    "line1": "1 68882U 26095U   26151.16668980 -.02290650  00000+0 -18091+0 0  9996",
    "line2": "2 68882  51.8921 326.7947 0004518 240.6621 100.5418 15.04148111  3870"
  },
  {
    "name": "KUIPER-00502",
    "noradId": "68883",
    "line1": "1 68883U 26095V   26150.85979488  .00044042  00000+0  11715-2 0  9997",
    "line2": "2 68883  51.8815 326.1639 0005716 230.3625 129.6858 15.37774434  5068"
  }
]